{"type": "FeatureCollection", "features": [ {"type": "Feature", "properties": {"norad_id": 66581, "name": "STARLINK-35744", "group": "last-30-days", "lat": -0.010484511625669978, "lon": 2.586412426580693, "alt_km": 338.6309352103144, "timestamp": "2025-12-02T08:59:31.504601+00:00", "meta": {"OBJECT_NAME": "STARLINK-35744", "OBJECT_ID": "2025-268AA", "EPOCH": "2025-12-02T04:00:03.998880", "MEAN_MOTION": 15.77945559, "ECCENTRICITY": 0.000172, "INCLINATION": 42.9975, "RA_OF_ASC_NODE": 183.8418, "ARG_OF_PERICENTER": 279.604, "MEAN_ANOMALY": 157.8952, "EPHEMERIS_TYPE": 0, "CLASSIFICATION_TYPE": "U", "NORAD_CAT_ID": 66581, "ELEMENT_SET_NO": 999, "REV_AT_EPOCH": 292, "BSTAR": -0.012033, "MEAN_MOTION_DOT": -0.01840482, "MEAN_MOTION_DDOT": 0}, "tle": {"line1": "1 66581U 25268AA  25336.16671295 -.01840482  00000+0 -12033-1 0  9993", "line2": "2 66581  42.9975 183.8418 0001720 279.6040 157.8952 15.77945559  2922"}}, "geometry": {"type": "Point", "coordinates": [2.586412426580693, -0.010484511625669978]}}, {"type": "Feature", "properties": {"norad_id": 66582, "name": "STARLINK-35746", "group": "last-30-days", "lat": -1.4341665589755999, "lon": 4.109622237214306, "alt_km": 338.9779238826859, "timestamp": "2025-12-02T08:59:31.504611+00:00", "meta": {"OBJECT_NAME": "STARLINK-35746", "OBJECT_ID": "2025-268AB", "EPOCH": "2025-12-02T04:00:03.998880", "MEAN_MOTION": 15.7787973, "ECCENTRICITY": 0.0001689, "INCLINATION": 42.9975, "RA_OF_ASC_NODE": 183.8364, "ARG_OF_PERICENTER": 278.7735, "MEAN_ANOMALY": 160.8696, "EPHEMERIS_TYPE": 0, "CLASSIFICATION_TYPE": "U", "NORAD_CAT_ID": 66582, "ELEMENT_SET_NO": 999, "REV_AT_EPOCH": 297, "BSTAR": -0.0123, "MEAN_MOTION_DOT": -0.01871112, "MEAN_MOTION_DDOT": 0}, "tle": {"line1": "1 66582U 25268AB  25336.16671295 -.01871112  00000+0 -12300-1 0  9995", "line2": "2 66582  42.9975 183.8364 0001689 278.7735 160.8696 15.77879730  2979"}}, "geometry": {"type": "Point", "coordinates": [4.109622237214306, -1.4341665589755999]}}, {"type": "Feature", "properties": {"norad_id": 66583, "name": "STARLINK-35941", "group": "last-30-days", "lat": -2.817452156045186, "lon": 5.5920784673810875, "alt_km": 339.23290678573267, "timestamp": "2025-12-02T08:59:31.504623+00:00", "meta": {"OBJECT_NAME": "STARLINK-35941", "OBJECT_ID": "2025-268AC", "EPOCH": "2025-12-02T04:00:03.998880", "MEAN_MOTION": 15.77826438, "ECCENTRICITY": 0.0001666, "INCLINATION": 42.9975, "RA_OF_ASC_NODE": 183.8308, "ARG_OF_PERICENTER": 276.9119, "MEAN_ANOMALY": 164.8044, "EPHEMERIS_TYPE": 0, "CLASSIFICATION_TYPE": "U", "NORAD_CAT_ID": 66583, "ELEMENT_SET_NO": 999, "REV_AT_EPOCH": 297, "BSTAR": -0.012424, "MEAN_MOTION_DOT": -0.01883508, "MEAN_MOTION_DDOT": 0}, "tle": {"line1": "1 66583U 25268AC  25336.16671295 -.01883508  00000+0 -12424-1 0  9995", "line2": "2 66583  42.9975 183.8308 0001666 276.9119 164.8044 15.77826438  2977"}}, "geometry": {"type": "Point", "coordinates": [5.5920784673810875, -2.817452156045186]}}, {"type": "Feature", "properties": {"norad_id": 66584, "name": "STARLINK-35939", "group": "last-30-days", "lat": -4.151738854088123, "lon": 7.02817202742369, "alt_km": 339.40930742436285, "timestamp": "2025-12-02T08:59:31.504633+00:00", "meta": {"OBJECT_NAME": "STARLINK-35939", "OBJECT_ID": "2025-268AD", "EPOCH": "2025-12-02T04:00:03.998880", "MEAN_MOTION": 15.7781271, "ECCENTRICITY": 0.0001647, "INCLINATION": 42.9979, "RA_OF_ASC_NODE": 183.8264, "ARG_OF_PERICENTER": 276.667, "MEAN_ANOMALY": 167.024, "EPHEMERIS_TYPE": 0, "CLASSIFICATION_TYPE": "U", "NORAD_CAT_ID": 66584, "ELEMENT_SET_NO": 999, "REV_AT_EPOCH": 297, "BSTAR": -0.012545, "MEAN_MOTION_DOT": -0.0189842, "MEAN_MOTION_DDOT": 0}, "tle": {"line1": "1 66584U 25268AD  25336.16671295 -.01898420  00000+0 -12545-1 0  9999", "line2": "2 66584  42.9979 183.8264 0001647 276.6670 167.0240 15.77812710  2972"}}, "geometry": {"type": "Point", "coordinates": [7.02817202742369, -4.151738854088123]}}, {"type": "Feature", "properties": {"norad_id": 66585, "name": "STARLINK-35963", "group": "last-30-days", "lat": -5.5164826380211185, "lon": 8.504490104246614, "alt_km": 339.72677580076015, "timestamp": "2025-12-02T08:59:31.504645+00:00", "meta": {"OBJECT_NAME": "STARLINK-35963", "OBJECT_ID": "2025-268AE", "EPOCH": "2025-12-02T04:00:03.998880", "MEAN_MOTION": 15.77755567, "ECCENTRICITY": 0.0001693, "INCLINATION": 42.9978, "RA_OF_ASC_NODE": 183.8212, "ARG_OF_PERICENTER": 278.2726, "MEAN_ANOMALY": 167.4718, "EPHEMERIS_TYPE": 0, "CLASSIFICATION_TYPE": "U", "NORAD_CAT_ID": 66585, "ELEMENT_SET_NO": 999, "REV_AT_EPOCH": 297, "BSTAR": -0.012557, "MEAN_MOTION_DOT": -0.01895739, "MEAN_MOTION_DDOT": 0}, "tle": {"line1": "1 66585U 25268AE  25336.16671295 -.01895739  00000+0 -12557-1 0  9993", "line2": "2 66585  42.9978 183.8212 0001693 278.2726 167.4718 15.77755567  2976"}}, "geometry": {"type": "Point", "coordinates": [8.504490104246614, -5.5164826380211185]}}, {"type": "Feature", "properties": {"norad_id": 66586, "name": "TJS-21", "group": "last-30-days", "lat": 49.26876439847772, "lon": -78.03541765140726, "alt_km": 13568.494464279811, "timestamp": "2025-12-02T08:59:31.504658+00:00", "meta": {"OBJECT_NAME": "TJS-21", "OBJECT_ID": "2025-269A", "EPOCH": "2025-11-22T00:38:56.616288", "MEAN_MOTION": 2.0099221, "ECCENTRICITY": 0.75179873, "INCLINATION": 51.0366, "RA_OF_ASC_NODE": 174.7096, "ARG_OF_PERICENTER": 225.0489, "MEAN_ANOMALY": 41.6572, "EPHEMERIS_TYPE": 0, "CLASSIFICATION_TYPE": "U", "NORAD_CAT_ID": 66586, "ELEMENT_SET_NO": 999, "REV_AT_EPOCH": 2, "BSTAR": 0.00053569978, "MEAN_MOTION_DOT": 3.197e-05, "MEAN_MOTION_DDOT": 0}, "tle": {"line1": "1 66586U 25269A   25326.02704417  .00003197  00000+0  53570-3 0  9990", "line2": "2 66586  51.0366 174.7096 7517987 225.0489  41.6572  2.00992210    24"}}, "geometry": {"type": "Point", "coordinates": [-78.03541765140726, 49.26876439847772]}}, {"type": "Feature", "properties": {"norad_id": 66587, "name": "CZ-3B R/B", "group": "last-30-days", "lat": 17.27765084299749, "lon": -22.447172560006095, "alt_km": 2666.283286780227, "timestamp": "2025-12-02T08:59:31.504678+00:00", "meta": {"OBJECT_NAME": "CZ-3B R/B", "OBJECT_ID": "2025-269B", "EPOCH": "2025-11-23T12:20:01.405824", "MEAN_MOTION": 2.01516013, "ECCENTRICITY": 0.75253415, "INCLINATION": 51.3768, "RA_OF_ASC_NODE": 174.0599, "ARG_OF_PERICENTER": 225.2938, "MEAN_ANOMALY": 41.2116, "EPHEMERIS_TYPE": 0, "CLASSIFICATION_TYPE": "U", "NORAD_CAT_ID": 66587, "ELEMENT_SET_NO": 999, "REV_AT_EPOCH": 6, "BSTAR": 0.00049596604, "MEAN_MOTION_DOT": 0.0001032, "MEAN_MOTION_DDOT": -9.13844e-07}, "tle": {"line1": "1 66587U 25269B   25327.51390516  .00010320 -91384-6  49597-3 0  9990", "line2": "2 66587  51.3768 174.0599 7525341 225.2938  41.2116  2.01516013    67"}}, "geometry": {"type": "Point", "coordinates": [-22.447172560006095, 17.27765084299749]}}, {"type": "Feature", "properties": {"norad_id": 66588, "name": "STARLINK-36076", "group": "last-30-days", "lat": -42.88415625533204, "lon": 169.21960572534687, "alt_km": 329.4912845899098, "timestamp": "2025-12-02T08:59:31.504694+00:00", "meta": {"OBJECT_NAME": "STARLINK-36076", "OBJECT_ID": "2025-270A", "EPOCH": "2025-12-01T16:00:03.998880", "MEAN_MOTION": 15.83253097, "ECCENTRICITY": 0.0001661, "INCLINATION": 42.9983, "RA_OF_ASC_NODE": 258.9364, "ARG_OF_PERICENTER": 255.8292, "MEAN_ANOMALY": 300.3757, "EPHEMERIS_TYPE": 0, "CLASSIFICATION_TYPE": "U", "NORAD_CAT_ID": 66588, "ELEMENT_SET_NO": 999, "REV_AT_EPOCH": 262, "BSTAR": -0.0075641, "MEAN_MOTION_DOT": -0.0149203, "MEAN_MOTION_DDOT": 0}, "tle": {"line1": "1 66588U 25270A   25335.66671295 -.01492030  00000+0 -75641-2 0  9994", "line2": "2 66588  42.9983 258.9364 0001661 255.8292 300.3757 15.83253097  2622"}}, "geometry": {"type": "Point", "coordinates": [169.21960572534687, -42.88415625533204]}}, {"type": "Feature", "properties": {"norad_id": 66589, "name": "STARLINK-35447", "group": "last-30-days", "lat": -42.57482291790315, "lon": 174.18124842306602, "alt_km": 329.3748899572847, "timestamp": "2025-12-02T08:59:31.504704+00:00", "meta": {"OBJECT_NAME": "STARLINK-35447", "OBJECT_ID": "2025-270B", "EPOCH": "2025-12-01T16:00:03.998880", "MEAN_MOTION": 15.83314069, "ECCENTRICITY": 0.0001635, "INCLINATION": 42.9982, "RA_OF_ASC_NODE": 258.9275, "ARG_OF_PERICENTER": 255.7976, "MEAN_ANOMALY": 303.9303, "EPHEMERIS_TYPE": 0, "CLASSIFICATION_TYPE": "U", "NORAD_CAT_ID": 66589, "ELEMENT_SET_NO": 999, "REV_AT_EPOCH": 273, "BSTAR": -0.00757, "MEAN_MOTION_DOT": -0.014969, "MEAN_MOTION_DDOT": 0}, "tle": {"line1": "1 66589U 25270B   25335.66671295 -.01496900  00000+0 -75700-2 0  9991", "line2": "2 66589  42.9982 258.9275 0001635 255.7976 303.9303 15.83314069  2737"}}, "geometry": {"type": "Point", "coordinates": [174.18124842306602, -42.57482291790315]}}, {"type": "Feature", "properties": {"norad_id": 66590, "name": "STARLINK-35429", "group": "last-30-days", "lat": -42.765297346378254, "lon": 171.56287512958, "alt_km": 329.39049644472743, "timestamp": "2025-12-02T08:59:31.504714+00:00", "meta": {"OBJECT_NAME": "STARLINK-35429", "OBJECT_ID": "2025-270C", "EPOCH": "2025-12-01T16:00:03.998880", "MEAN_MOTION": 15.83284356, "ECCENTRICITY": 0.0001609, "INCLINATION": 42.9983, "RA_OF_ASC_NODE": 258.9324, "ARG_OF_PERICENTER": 260.0941, "MEAN_ANOMALY": 297.7504, "EPHEMERIS_TYPE": 0, "CLASSIFICATION_TYPE": "U", "NORAD_CAT_ID": 66590, "ELEMENT_SET_NO": 999, "REV_AT_EPOCH": 273, "BSTAR": -0.0075246, "MEAN_MOTION_DOT": -0.01487077, "MEAN_MOTION_DDOT": 0}, "tle": {"line1": "1 66590U 25270C   25335.66671295 -.01487077  00000+0 -75246-2 0  9993", "line2": "2 66590  42.9983 258.9324 0001609 260.0941 297.7504 15.83284356  2735"}}, "geometry": {"type": "Point", "coordinates": [171.56287512958, -42.765297346378254]}}]}